{
    "links": {
        "self": "http://www.neowsapp.com/rest/v1/neo/3771792?api_key=iIulBulltgU6a56xZRHN4H3l9WmuAYTsLGpBGhQ2"
    },
    "id": "3771792",
    "neo_reference_id": "3771792",
    "name": "(2017 FJ63)",
    "designation": "2017 FJ63",
    "nasa_jpl_url": "http://ssd.jpl.nasa.gov/sbdb.cgi?sstr=3771792",
    "absolute_magnitude_h": 24.3,
    "estimated_diameter": {
        "kilometers": {
            "estimated_diameter_min": 0.0366906138,
            "estimated_diameter_max": 0.0820427065
        },
        "meters": {
            "estimated_diameter_min": 36.6906137531,
            "estimated_diameter_max": 82.0427064882
        },
        "miles": {
            "estimated_diameter_min": 0.0227984834,
            "estimated_diameter_max": 0.0509789586
        },
        "feet": {
            "estimated_diameter_min": 120.3760332259,
            "estimated_diameter_max": 269.1689931548
        }
    },
    "is_potentially_hazardous_asteroid": false,
    "close_approach_data": [
        {
            "close_approach_date": "2017-03-22",
            "close_approach_date_full": "2017-Mar-22 18:48",
            "epoch_date_close_approach": 1490208480000,
            "relative_velocity": {
                "kilometers_per_second": "3.7559201852",
                "kilometers_per_hour": "13521.3126666795",
                "miles_per_hour": "8401.6178622487"
            },
            "miss_distance": {
                "astronomical": "0.1774007311",
                "lunar": "69.0088843979",
                "kilometers": "26538771.509002757",
                "miles": "16490427.9443897666"
            },
            "orbiting_body": "Earth"
        },
        {
            "close_approach_date": "2035-03-21",
            "close_approach_date_full": "2035-Mar-21 03:34",
            "epoch_date_close_approach": 2058060840000,
            "relative_velocity": {
                "kilometers_per_second": "4.174413038",
                "kilometers_per_hour": "15027.8869367184",
                "miles_per_hour": "9337.7445246515"
            },
            "miss_distance": {
                "astronomical": "0.1773753438",
                "lunar": "68.9990087382",
                "kilometers": "26534973.622997706",
                "miles": "16488068.0474561028"
            },
            "orbiting_body": "Earth"
        }
    ],
    "orbital_data": {
        "orbit_id": "4",
        "orbit_determination_date": "2017-04-23 06:18:25",
        "first_observation_date": "2017-03-20",
        "last_observation_date": "2017-04-23",
        "data_arc_in_days": 34,
        "observations_used": 25,
        "orbit_uncertainty": "7",
        "minimum_orbit_intersection": ".167861",
        "jupiter_tisserand_invariant": "3.874",
        "epoch_osculation": "2459000.5",
        "eccentricity": ".3844273228397312",
        "semi_major_axis": "1.878354660837689",
        "inclination": "5.453412481786177",
        "ascending_node_longitude": "25.19830569490451",
        "orbital_period": "940.2965054955175",
        "perihelion_distance": "1.156263807228325",
        "perihelion_argument": "148.1720804912459",
        "aphelion_distance": "2.600445514447053",
        "perihelion_time": "2458762.965513843383",
        "mean_anomaly": "90.94196832234202",
        "mean_motion": ".3828579579909075",
        "equinox": "J2000",
        "orbit_class": {
            "orbit_class_type": "AMO",
            "orbit_class_description": "Near-Earth asteroid orbits similar to that of 1221 Amor",
            "orbit_class_range": "1.017 AU < q (perihelion) < 1.3 AU"
        }
    },
    "is_sentry_object": false
}